OBJECT_NAME,OBJECT_ID,EPOCH,MEAN_MOTION,ECCENTRICITY,INCLINATION,RA_OF_ASC_NODE,ARG_OF_PERICENTER,MEAN_ANOMALY,EPHEMERIS_TYPE,CLASSIFICATION_TYPE,NORAD_CAT_ID,ELEMENT_SET_NO,REV_AT_EPOCH,BSTAR,MEAN_MOTION_DOT,MEAN_MOTION_DDOT
CUBEBUG-2 (LO-74),2013-066AA,2026-06-15T09:19:28.819200,14.93747885,.00585087,97.8905,115.3590,34.8517,325.6511,0,U,39440,999,67672,.35100299E-3,.3783E-4,0
FUNCUBE-1 (AO-73),2013-066AE,2026-06-15T11:10:27.189408,15.09471681,.00355045,97.8272,137.8755,207.0229,152.9152,0,U,39444,999,67940,.36308765E-3,.5832E-4,0
UWE-3,2013-066AG,2026-06-15T09:51:46.833408,14.97011844,.00478551,97.8693,122.4726,327.0614,32.7628,0,U,39446,999,67731,.31228687E-3,.3615E-4,0
UNISAT-6,2014-033C,2026-06-15T09:14:40.764192,14.88238232,.00462912,97.7874,319.1286,75.0953,285.5383,0,U,40012,999,64589,.2711613E-3,.2497E-4,0
DUCHIFAT-1,2014-033M,2026-06-15T10:08:30.060960,15.64281009,.000328,98.0462,225.3358,119.3803,240.7782,0,U,40021,999,65547,.90896671E-3,.87303E-3,0
QB50P1,2014-033R,2026-06-15T13:38:22.389216,15.18240486,.00076823,98.0960,177.6007,221.6020,138.4628,0,U,40025,999,65278,.35185184E-3,.7133E-4,0
LILACSAT-2,2015-049K,2026-06-15T14:17:12.331104,15.51400500,.00054127,97.4644,203.3763,252.6987,107.3673,0,U,40908,999,59550,.25496117E-3,.1493E-3,0
FOX-1A (AO-85),2015-058D,2026-06-15T14:36:24.469056,14.90963368,.01303567,64.7762,283.8894,57.2038,304.1552,0,U,40967,999,11333,.19416751E-3,.2082E-4,0
CAS-2T & KS-1Q,2016-066G,2026-06-15T03:54:24.978240,14.44688208,.03427308,98.3821,241.9223,135.6008,227.3214,0,U,41847,999,50450,.22512618E-3,.1557E-4,0
RADFXSAT (FOX-1B),2017-073E,2026-06-15T14:53:26.781504,15.12698959,.01497666,97.4705,33.8675,334.7230,24.6723,0,U,43017,999,46515,.31887983E-3,.7281E-4,0
DIWATA-2B,2018-084H,2026-06-15T15:15:54.965376,15.00446370,.00123919,98.1175,2.7770,175.1096,185.0250,0,U,43678,999,41598,.18806342E-3,.2304E-4,0
ES'HAIL 2,2018-090A,2026-06-15T13:10:58.965312,1.00269803,.00015792,0.0181,9.4032,115.5396,2.4214,0,U,43700,999,2766,0,.146E-5,0
FOX-1CLIFF (AO-95),2018-099N,2026-06-15T02:40:24.381984,15.26676025,.00082015,97.4386,226.3649,5.4671,354.6656,0,U,43770,999,41290,.42484903E-3,.11091E-3,0
ITASAT,2018-099AE,2026-06-15T08:59:47.471136,15.19036687,.00123001,97.4029,217.9224,6.7006,353.4391,0,U,43786,999,41263,.26262342E-3,.5444E-4,0
JY1SAT (JO-97),2018-099AX,2026-06-15T01:45:14.710752,15.33596637,.00042443,97.4132,228.8995,272.7751,87.3006,0,U,43803,999,41330,.4818861E-3,.1559E-3,0
UWE-4,2018-111E,2026-06-15T12:46:35.999904,15.46038533,.00057942,97.5855,94.8474,350.1958,9.9176,0,U,43880,999,41052,.58058181E-3,.28345E-3,0
TIANYAN 01,2019-093C,2026-06-15T13:31:58.679040,14.86519165,.00151125,97.7539,238.8353,91.9147,268.3800,0,U,44881,999,35117,.14821101E-3,.1261E-4,0
RS-44 & BREEZE-KM R/B,2019-096E,2026-06-15T14:21:00.948096,12.79748870,.02181092,82.5218,340.7612,147.8718,213.5894,0,U,44909,999,30214,-.9040071E-5,.1E-6,0
SALSAT,2020-068K,2026-06-15T13:48:58.396896,15.29779983,.0008147,97.8844,169.5420,315.1312,44.9267,0,U,46495,999,31511,.22681759E-3,.6463E-4,0
XW-3 (CAS-9),2021-131B,2026-06-15T14:19:24.176640,14.41356573,.00053668,98.4985,258.9948,100.4652,259.7142,0,U,50466,999,23488,.16137368E-3,.478E-5,0
GREENCUBE (IO-117),2022-080E,2026-06-13T07:02:28.697280,6.42583230,.00089108,70.1444,299.5995,290.4576,69.5127,0,U,53109,999,9181,0,-.3E-7,0
UMKA 1 (RS40S),2023-091G,2026-06-15T13:56:03.937632,15.20802870,.00141913,97.5052,225.2839,122.6426,237.6181,0,U,57172,999,16376,.27048219E-3,.5909E-4,0
CUBESX-HSE 3 (RS42S),2023-091N,2026-06-15T14:31:49.482912,15.31181196,.00120515,97.5095,232.1724,99.5707,260.6896,0,U,57178,999,16418,.37860669E-3,.11354E-3,0
MONITOR-3 (RS58S),2023-091Q,2026-06-15T13:27:45.370656,15.27814739,.00131143,97.5087,229.9948,105.7902,254.4785,0,U,57180,999,16404,.33356374E-3,.9009E-4,0
MONITOR-4 (RS57S),2023-091S,2026-06-15T14:32:02.181984,15.27900036,.00131149,97.5081,230.0109,105.9945,254.2740,0,U,57182,999,16405,.32054782E-3,.8676E-4,0
MONITOR-2 (RS39S),2023-091U,2026-06-15T14:23:46.127616,15.18898081,.00126962,97.5075,224.8929,115.8822,244.3723,0,U,57184,999,16371,.2089728E-3,.4299E-4,0
SVYATOBOR 1 (RS60S),2023-091X,2026-06-15T13:14:32.912448,15.26592156,.00108961,97.5094,230.3596,99.2735,260.9736,0,U,57187,999,16406,.29323736E-3,.7614E-4,0
VIZARD-METEO (RS38S),2023-091Z,2026-06-15T14:01:07.274208,15.35983366,.00083589,97.5097,236.0367,82.5639,277.6554,0,U,57189,999,16444,.40704742E-3,.14203E-3,0
POLYTECH-UNIVERSE 3 (RS46S),2023-091AB,2026-06-15T13:28:23.385792,15.19099973,.00167906,97.5050,224.3593,131.9468,228.3201,0,U,57191,999,16370,.22212666E-3,.4608E-4,0
UTMN 2 (RS27S),2023-091AP,2026-06-15T13:24:20.396160,15.32018248,.0009341,97.5092,233.7568,88.6525,271.5787,0,U,57203,999,16429,.35897027E-3,.11036E-3,0
